 Automated mail xmit by MAIL_REQUEST, PID=   3657 Sat Apr 12 04:59:52 2014
++++++++++++++++++++++++++++++++ (part 1 of 1)  
++++++++++++++++++++++++++++++++ +++++++++++++++++++++++++++++++

*******************************************************************************
 Revised: Dec 02, 2013             Io  / (Jupiter)                          501

 SATELLITE PHYSICAL PROPERTIES:
  Radius (km)             = 1821.3 +- 0.2   Density (g cm^-3)   =  3.530 +-.006
  Mass (10^20 kg )        =  893.3 +- 1.5   Geometric Albedo    =  0.6  

 SATELLITE ORBITAL DATA:
  Semi-major axis, a (km) = 421.769 (10^3)  Orbital period      = 1.769138 d
  Eccentricity, e         = 0.0041          Rotational period   = Synchronous
  Inclination, i  (deg)   = 0.036
*******************************************************************************
 
 
*******************************************************************************
Ephemeris / MAIL_REQUEST Sat Apr 12 04:59:52 2014 Pasadena, USA  / Horizons    
*******************************************************************************
Target body name: Io (501)                        {source: JUP310}
Center body name: Sun (10)                        {source: DE-0431LE-0431}
Center-site name: BODY CENTER
*******************************************************************************
Start time      : A.D. 2013-Jan-01 10:00:00.0000 CT 
Stop  time      : A.D. 2014-Jan-01 10:00:00.0000 CT 
Step-size       : 2 steps
*******************************************************************************
Center geodetic : 0.00000000,0.00000000,0.0000000 {E-lon(deg),Lat(deg),Alt(km)} Center cylindric: 0.00000000,0.00000000,0.0000000 {E-lon(deg),Dxy(km),Dz(km)}
Center radii    : 696000.0 x 696000.0 x 696000.0 k{Equator, meridian, pole}    
Output units    : AU-D                                                         
Output format   : 03
Reference frame : ICRF/J2000.0                                                 
Output type     : GEOMETRIC cartesian states
Coordinate systm: Ecliptic and Mean Equinox of Reference Epoch                 
*******************************************************************************
JDCT ,   , X, Y, Z, VX, VY, VZ, LT, RG, RR,
*******************************************************************************
$$SOE
2456293.916666667, A.D. 2013-Jan-01 10:00:00.0000,  1.420395259696884E+00,  4.861731328374537E+00, -5.195620347687080E-02, -1.500953786491513E-02, -4.010443779120718E-03, -1.957858413687209E-04,  2.925438498658535E-02,  5.065239742613133E+00, -8.056282896717960E-03, 2456476.416666667, A.D. 2013-Jul-02 22:00:00.0000,  4.335046651205818E-02,  5.125044193354840E+00, -2.237396947750924E-02, -6.427291409797318E-03, -9.464538576895954E-03, -1.735781765363722E-04,  2.960112761307451E-02,  5.125276367309099E+00, -9.517715227152636E-03, 2456658.916666667, A.D. 2014-Jan-01 10:00:00.0000, -1.335111955720863E+00,  5.015548429714649E+00,  8.897022127980825E-03,  1.629564312147437E-03, -6.018064304964597E-03,  1.469575884948264E-04,  2.997618042771613E-02,  5.190214749133663E+00, -6.234469641344897E-03, $$EOE
*******************************************************************************
Coordinate system description:

  Ecliptic and Mean Equinox of Reference Epoch

    Reference epoch: J2000.0
    xy-plane: plane of the Earth's orbit at the reference epoch
    x-axis  : out along ascending node of instantaneous plane of the Earth's
              orbit and the Earth's mean equator at the reference epoch
    z-axis  : perpendicular to the xy-plane in the directional (+ or -) sense
              of Earth's north pole at the reference epoch.

Symbol meaning [1 au=149597870.700 km, 1 day=86400.0 s]:

    JDCT     Epoch Julian Date, Coordinate Time
      X      x-component of position vector (AU)                               
      Y      y-component of position vector (AU)                               
      Z      z-component of position vector (AU)                               
      VX     x-component of velocity vector (AU/day)                           
      VY     y-component of velocity vector (AU/day)                           
      VZ     z-component of velocity vector (AU/day)                           
      LT     One-way down-leg Newtonian light-time (day)                       
      RG     Range; distance from coordinate center (AU)                       
      RR     Range-rate; radial velocity wrt coord. center (AU/day)            

Geometric states/elements have no aberration corrections applied.

 Computations by ...
     Solar System Dynamics Group, Horizons On-Line Ephemeris System
     4800 Oak Grove Drive, Jet Propulsion Laboratory
     Pasadena, CA  91109   USA
     Information: http://ssd.jpl.nasa.gov/
     Connect    : telnet://ssd.jpl.nasa.gov:6775  (via browser)
                  telnet ssd.jpl.nasa.gov 6775    (via command-line)
     Author     : Jon.Giorgini@jpl.nasa.gov
*******************************************************************************
